STARLINK-36096          
1 66949U 25286AA  26001.91668981  .00040685  00000+0  10233-2 0  9997
2 66949  53.1597 311.2591 0001182 114.0200 332.1420 15.39573096  5231
STARLINK-36111          
1 66950U 25286AB  26001.82940076  .00203885  00000+0  35695-2 0  9999
2 66950  53.1592 311.5964 0001575  73.3547 286.7635 15.49385450  5140
STARLINK-35999          
1 66951U 25286AC  26001.57101901  .00166433  00000+0  29292-2 0  9991
2 66951  53.1599 312.8267 0001372  87.5233 272.5933 15.49387194  5109
STARLINK-36122          
1 66952U 25286AD  26001.82974448  .00145103  00000+0  25652-2 0  9991
2 66952  53.1603 311.5980 0001915  99.4852 260.6373 15.49349044  5148
HULIANWANG DIGUI-114    
1 66953U 25287A   25362.37786440  .00000040  00000+0  30534-4 0  9992
2 66953  86.4952 340.4811 0001731  85.2347 274.9006 13.62060403  2664
HULIANWANG DIGUI-115    
1 66954U 25287B   25362.30127108  .00000040  00000+0  30553-4 0  9997
2 66954  86.4760 340.5489 0003893  64.9296 295.2263 13.61926978  2659
HULIANWANG DIGUI-116    
1 66955U 25287C   25362.29720234  .00000185  00000+0  21733-3 0  9994
2 66955  86.4968 340.4874 0002763  86.1288 274.0183 13.62405302  2659
HULIANWANG DIGUI-117    
1 66956U 25287D   25358.91908891  .00000024  00000+0  90260-5 0  9991
2 66956  86.4976 341.7257 0001044 103.5815 256.5458 13.64670553  2192
HULIANWANG DIGUI-118    
1 66957U 25287E   25362.51058519  .00000182  00000+0  21280-3 0  9995
2 66957  86.4946 340.4177 0001409  89.7446 270.3872 13.62673219  2685
CZ-6A R/B               
1 66958U 25287F   26002.00314285  .00000157  00000+0  98521-4 0  9992
2 66958  86.5072 338.3977 0106605  41.1580 319.7571 13.94923555  3362
STARLINK-35887          
1 66959U 25288A   26001.91668981 -.00108970  00000+0 -26355-2 0  9996
2 66959  43.0010  46.0549 0001434 253.7550  42.9001 15.40737248  5071
STARLINK-35879          
1 66960U 25288B   26001.58897927  .00122658  00000+0  20612-2 0  9992
2 66960  43.0011  47.7393 0001484 258.7193 101.3500 15.50617575  4964
