CCSDS_OMM_VERS = 2.0
CREATION_DATE  = 
ORIGINATOR     = 

OBJECT_NAME    = STARLINK-36096
OBJECT_ID      = 2025-286AA
CENTER_NAME    = EARTH
REF_FRAME      = TEME
TIME_SYSTEM    = UTC
MEAN_ELEMENT_THEORY = SGP/SGP4

EPOCH          = 2026-01-01T22:00:01.999584
MEAN_MOTION    = 15.39573096
ECCENTRICITY   = .00011827
INCLINATION    = 53.1597
RA_OF_ASC_NODE = 311.2591
ARG_OF_PERICENTER = 114.0200
MEAN_ANOMALY   = 332.1420

EPHEMERIS_TYPE = 0
CLASSIFICATION_TYPE = U
NORAD_CAT_ID   = 66949
ELEMENT_SET_NO = 999
REV_AT_EPOCH   = 523
BSTAR          = .10232554E-2
MEAN_MOTION_DOT = .40685E-3
MEAN_MOTION_DDOT = 0

CCSDS_OMM_VERS = 2.0
CREATION_DATE  = 
ORIGINATOR     = 

OBJECT_NAME    = STARLINK-36111
OBJECT_ID      = 2025-286AB
CENTER_NAME    = EARTH
REF_FRAME      = TEME
TIME_SYSTEM    = UTC
MEAN_ELEMENT_THEORY = SGP/SGP4

EPOCH          = 2026-01-01T19:54:20.225664
MEAN_MOTION    = 15.49385450
ECCENTRICITY   = .00015758
INCLINATION    = 53.1592
RA_OF_ASC_NODE = 311.5964
ARG_OF_PERICENTER = 73.3547
MEAN_ANOMALY   = 286.7635

EPHEMERIS_TYPE = 0
CLASSIFICATION_TYPE = U
NORAD_CAT_ID   = 66950
ELEMENT_SET_NO = 999
REV_AT_EPOCH   = 514
BSTAR          = .35694644E-2
MEAN_MOTION_DOT = .203885E-2
MEAN_MOTION_DDOT = 0

CCSDS_OMM_VERS = 2.0
CREATION_DATE  = 
ORIGINATOR     = 

OBJECT_NAME    = STARLINK-35999
OBJECT_ID      = 2025-286AC
CENTER_NAME    = EARTH
REF_FRAME      = TEME
TIME_SYSTEM    = UTC
MEAN_ELEMENT_THEORY = SGP/SGP4

EPOCH          = 2026-01-01T13:42:16.042464
MEAN_MOTION    = 15.49387194
ECCENTRICITY   = .0001372
INCLINATION    = 53.1599
RA_OF_ASC_NODE = 312.8267
ARG_OF_PERICENTER = 87.5233
MEAN_ANOMALY   = 272.5933

EPHEMERIS_TYPE = 0
CLASSIFICATION_TYPE = U
NORAD_CAT_ID   = 66951
ELEMENT_SET_NO = 999
REV_AT_EPOCH   = 510
BSTAR          = .29292E-2
MEAN_MOTION_DOT = .166433E-2
MEAN_MOTION_DDOT = 0

CCSDS_OMM_VERS = 2.0
CREATION_DATE  = 
ORIGINATOR     = 

OBJECT_NAME    = STARLINK-36122
OBJECT_ID      = 2025-286AD
CENTER_NAME    = EARTH
REF_FRAME      = TEME
TIME_SYSTEM    = UTC
MEAN_ELEMENT_THEORY = SGP/SGP4

EPOCH          = 2026-01-01T19:54:49.923072
MEAN_MOTION    = 15.49349044
ECCENTRICITY   = .00019157
INCLINATION    = 53.1603
RA_OF_ASC_NODE = 311.5980
ARG_OF_PERICENTER = 99.4852
MEAN_ANOMALY   = 260.6373

EPHEMERIS_TYPE = 0
CLASSIFICATION_TYPE = U
NORAD_CAT_ID   = 66952
ELEMENT_SET_NO = 999
REV_AT_EPOCH   = 514
BSTAR          = .25651972E-2
MEAN_MOTION_DOT = .145103E-2
MEAN_MOTION_DDOT = 0

CCSDS_OMM_VERS = 2.0
CREATION_DATE  = 
ORIGINATOR     = 

OBJECT_NAME    = HULIANWANG DIGUI-114
OBJECT_ID      = 2025-287A
CENTER_NAME    = EARTH
REF_FRAME      = TEME
TIME_SYSTEM    = UTC
MEAN_ELEMENT_THEORY = SGP/SGP4

EPOCH          = 2025-12-28T09:04:07.484160
MEAN_MOTION    = 13.62060403
ECCENTRICITY   = .00017315
INCLINATION    = 86.4952
RA_OF_ASC_NODE = 340.4811
ARG_OF_PERICENTER = 85.2347
MEAN_ANOMALY   = 274.9006

EPHEMERIS_TYPE = 0
CLASSIFICATION_TYPE = U
NORAD_CAT_ID   = 66953
ELEMENT_SET_NO = 999
REV_AT_EPOCH   = 266
BSTAR          = .30533624E-4
MEAN_MOTION_DOT = .4E-6
MEAN_MOTION_DDOT = 0

CCSDS_OMM_VERS = 2.0
CREATION_DATE  = 
ORIGINATOR     = 

OBJECT_NAME    = HULIANWANG DIGUI-115
OBJECT_ID      = 2025-287B
CENTER_NAME    = EARTH
REF_FRAME      = TEME
TIME_SYSTEM    = UTC
MEAN_ELEMENT_THEORY = SGP/SGP4

EPOCH          = 2025-12-28T07:13:49.821312
MEAN_MOTION    = 13.61926978
ECCENTRICITY   = .00038933
INCLINATION    = 86.4760
RA_OF_ASC_NODE = 340.5489
ARG_OF_PERICENTER = 64.9296
MEAN_ANOMALY   = 295.2263

EPHEMERIS_TYPE = 0
CLASSIFICATION_TYPE = U
NORAD_CAT_ID   = 66954
ELEMENT_SET_NO = 999
REV_AT_EPOCH   = 265
BSTAR          = .30552501E-4
MEAN_MOTION_DOT = .4E-6
MEAN_MOTION_DDOT = 0

CCSDS_OMM_VERS = 2.0
CREATION_DATE  = 
ORIGINATOR     = 

OBJECT_NAME    = HULIANWANG DIGUI-116
OBJECT_ID      = 2025-287C
CENTER_NAME    = EARTH
REF_FRAME      = TEME
TIME_SYSTEM    = UTC
MEAN_ELEMENT_THEORY = SGP/SGP4

EPOCH          = 2025-12-28T07:07:58.282176
MEAN_MOTION    = 13.62405302
ECCENTRICITY   = .00027634
INCLINATION    = 86.4968
RA_OF_ASC_NODE = 340.4874
ARG_OF_PERICENTER = 86.1288
MEAN_ANOMALY   = 274.0183

EPHEMERIS_TYPE = 0
CLASSIFICATION_TYPE = U
NORAD_CAT_ID   = 66955
ELEMENT_SET_NO = 999
REV_AT_EPOCH   = 265
BSTAR          = .21732817E-3
MEAN_MOTION_DOT = .185E-5
MEAN_MOTION_DDOT = 0

CCSDS_OMM_VERS = 2.0
CREATION_DATE  = 
ORIGINATOR     = 

OBJECT_NAME    = HULIANWANG DIGUI-117
OBJECT_ID      = 2025-287D
CENTER_NAME    = EARTH
REF_FRAME      = TEME
TIME_SYSTEM    = UTC
MEAN_ELEMENT_THEORY = SGP/SGP4

EPOCH          = 2025-12-24T22:03:29.281824
MEAN_MOTION    = 13.64670553
ECCENTRICITY   = .00010447
INCLINATION    = 86.4976
RA_OF_ASC_NODE = 341.7257
ARG_OF_PERICENTER = 103.5815
MEAN_ANOMALY   = 256.5458

EPHEMERIS_TYPE = 0
CLASSIFICATION_TYPE = U
NORAD_CAT_ID   = 66956
ELEMENT_SET_NO = 999
REV_AT_EPOCH   = 219
BSTAR          = .9025962E-5
MEAN_MOTION_DOT = .24E-6
MEAN_MOTION_DDOT = 0

CCSDS_OMM_VERS = 2.0
CREATION_DATE  = 
ORIGINATOR     = 

OBJECT_NAME    = HULIANWANG DIGUI-118
OBJECT_ID      = 2025-287E
CENTER_NAME    = EARTH
REF_FRAME      = TEME
TIME_SYSTEM    = UTC
MEAN_ELEMENT_THEORY = SGP/SGP4

EPOCH          = 2025-12-28T12:15:14.560416
MEAN_MOTION    = 13.62673219
ECCENTRICITY   = .00014098
INCLINATION    = 86.4946
RA_OF_ASC_NODE = 340.4177
ARG_OF_PERICENTER = 89.7446
MEAN_ANOMALY   = 270.3872

EPHEMERIS_TYPE = 0
CLASSIFICATION_TYPE = U
NORAD_CAT_ID   = 66957
ELEMENT_SET_NO = 999
REV_AT_EPOCH   = 268
BSTAR          = .21280161E-3
MEAN_MOTION_DOT = .182E-5
MEAN_MOTION_DDOT = 0

CCSDS_OMM_VERS = 2.0
CREATION_DATE  = 
ORIGINATOR     = 

OBJECT_NAME    = CZ-6A R/B
OBJECT_ID      = 2025-287F
CENTER_NAME    = EARTH
REF_FRAME      = TEME
TIME_SYSTEM    = UTC
MEAN_ELEMENT_THEORY = SGP/SGP4

EPOCH          = 2026-01-02T00:04:31.542240
MEAN_MOTION    = 13.94923555
ECCENTRICITY   = .01066051
INCLINATION    = 86.5072
RA_OF_ASC_NODE = 338.3977
ARG_OF_PERICENTER = 41.1580
MEAN_ANOMALY   = 319.7571

EPHEMERIS_TYPE = 0
CLASSIFICATION_TYPE = U
NORAD_CAT_ID   = 66958
ELEMENT_SET_NO = 999
REV_AT_EPOCH   = 336
BSTAR          = .98520591E-4
MEAN_MOTION_DOT = .157E-5
MEAN_MOTION_DDOT = 0

CCSDS_OMM_VERS = 2.0
CREATION_DATE  = 
ORIGINATOR     = 

OBJECT_NAME    = STARLINK-35887
OBJECT_ID      = 2025-288A
CENTER_NAME    = EARTH
REF_FRAME      = TEME
TIME_SYSTEM    = UTC
MEAN_ELEMENT_THEORY = SGP/SGP4

EPOCH          = 2026-01-01T22:00:01.999584
MEAN_MOTION    = 15.40737248
ECCENTRICITY   = .00014349
INCLINATION    = 43.0010
RA_OF_ASC_NODE = 46.0549
ARG_OF_PERICENTER = 253.7550
MEAN_ANOMALY   = 42.9001

EPHEMERIS_TYPE = 0
CLASSIFICATION_TYPE = U
NORAD_CAT_ID   = 66959
ELEMENT_SET_NO = 999
REV_AT_EPOCH   = 507
BSTAR          = -.26354628E-2
MEAN_MOTION_DOT = -.10897E-2
MEAN_MOTION_DDOT = 0

CCSDS_OMM_VERS = 2.0
CREATION_DATE  = 
ORIGINATOR     = 

OBJECT_NAME    = STARLINK-35879
OBJECT_ID      = 2025-288B
CENTER_NAME    = EARTH
REF_FRAME      = TEME
TIME_SYSTEM    = UTC
MEAN_ELEMENT_THEORY = SGP/SGP4

EPOCH          = 2026-01-01T14:08:07.808928
MEAN_MOTION    = 15.50617575
ECCENTRICITY   = .0001484
INCLINATION    = 43.0011
RA_OF_ASC_NODE = 47.7393
ARG_OF_PERICENTER = 258.7193
MEAN_ANOMALY   = 101.3500

EPHEMERIS_TYPE = 0
CLASSIFICATION_TYPE = U
NORAD_CAT_ID   = 66960
ELEMENT_SET_NO = 999
REV_AT_EPOCH   = 496
BSTAR          = .20612E-2
MEAN_MOTION_DOT = .122658E-2
MEAN_MOTION_DDOT = 0

